{
  "type": "FeatureCollection",
  "features": [
    {
      "type": "Feature",
      "properties": {
        "norad_id": 66460,
        "name": "STARLINK-35424",
        "group": "last-30-days",
        "lat": -42.84569916569949,
        "lon": 4.516220675852563,
        "alt_km": 446.46723539219784,
        "timestamp": "2025-12-09T16:56:35.358142+00:00",
        "meta_object_name": "STARLINK-35424",
        "meta_object_id": "2025-262E",
        "meta_epoch": "2025-12-09T12:00:02.000160",
        "meta_mean_motion": 15.40647169,
        "meta_eccentricity": 0.0001541,
        "meta_inclination": 43,
        "meta_ra_of_asc_node": 90.1578,
        "meta_arg_of_pericenter": 273.8877,
        "meta_mean_anomaly": 296.5977,
        "meta_ephemeris_type": 0,
        "meta_classification_type": "U",
        "meta_norad_cat_id": 66460,
        "meta_element_set_no": 999,
        "meta_rev_at_epoch": 511,
        "meta_bstar": 0.0010645,
        "meta_mean_motion_dot": 0.00044343,
        "meta_mean_motion_ddot": 0,
        "tle_line1": "1 66460U 25262E   25343.50002315  .00044343  00000+0  10645-2 0  9997",
        "tle_line2": "2 66460  43.0000  90.1578 0001541 273.8877 296.5977 15.40647169  5119"
      },
      "geometry": {
        "type": "Point",
        "coordinates": [
          4.516220675852563,
          -42.84569916569949
        ]
      }
    },
    {
      "type": "Feature",
      "properties": {
        "norad_id": 66461,
        "name": "STARLINK-35132",
        "group": "last-30-days",
        "lat": -40.83258028844825,
        "lon": 20.912875148382312,
        "alt_km": 445.16327303700564,
        "timestamp": "2025-12-09T16:56:35.358153+00:00",
        "meta_object_name": "STARLINK-35132",
        "meta_object_id": "2025-262F",
        "meta_epoch": "2025-12-09T12:00:02.000160",
        "meta_mean_motion": 15.4167213,
        "meta_eccentricity": 0.0001499,
        "meta_inclination": 42.9999,
        "meta_ra_of_asc_node": 90.1295,
        "meta_arg_of_pericenter": 291.2654,
        "meta_mean_anomaly": 291.1027,
        "meta_ephemeris_type": 0,
        "meta_classification_type": "U",
        "meta_norad_cat_id": 66461,
        "meta_element_set_no": 999,
        "meta_rev_at_epoch": 511,
        "meta_bstar": -0.035945,
        "meta_mean_motion_dot": -0.01410142,
        "meta_mean_motion_ddot": 0,
        "tle_line1": "1 66461U 25262F   25343.50002315 -.01410142  00000+0 -35945-1 0  9994",
        "tle_line2": "2 66461  42.9999  90.1295 0001499 291.2654 291.1027 15.41672130  5114"
      },
      "geometry": {
        "type": "Point",
        "coordinates": [
          20.912875148382312,
          -40.83258028844825
        ]
      }
    },
    {
      "type": "Feature",
      "properties": {
        "norad_id": 66462,
        "name": "STARLINK-35499",
        "group": "last-30-days",
        "lat": -37.05443779135909,
        "lon": 34.79010217732715,
        "alt_km": 441.599695109755,
        "timestamp": "2025-12-09T16:56:35.358165+00:00",
        "meta_object_name": "STARLINK-35499",
        "meta_object_id": "2025-262G",
        "meta_epoch": "2025-12-09T12:00:02.000160",
        "meta_mean_motion": 15.43205965,
        "meta_eccentricity": 8.9e-05,
        "meta_inclination": 42.9998,
        "meta_ra_of_asc_node": 90.1029,
        "meta_arg_of_pericenter": 286.5095,
        "meta_mean_anomaly": 306.2719,
        "meta_ephemeris_type": 0,
        "meta_classification_type": "U",
        "meta_norad_cat_id": 66462,
        "meta_element_set_no": 999,
        "meta_rev_at_epoch": 511,
        "meta_bstar": -0.048681,
        "meta_mean_motion_dot": -0.01973833,
        "meta_mean_motion_ddot": 0,
        "tle_line1": "1 66462U 25262G   25343.50002315 -.01973833  00000+0 -48681-1 0  9997",
        "tle_line2": "2 66462  42.9998  90.1029 0000890 286.5095 306.2719 15.43205965  5115"
      },
      "geometry": {
        "type": "Point",
        "coordinates": [
          34.79010217732715,
          -37.05443779135909
        ]
      }
    },
    {
      "type": "Feature",
      "properties": {
        "norad_id": 66463,
        "name": "STARLINK-35463",
        "group": "last-30-days",
        "lat": -27.987029758251552,
        "lon": 54.09686849028247,
        "alt_km": 433.4128773357188,
        "timestamp": "2025-12-09T16:56:35.358178+00:00",
        "meta_object_name": "STARLINK-35463",
        "meta_object_id": "2025-262H",
        "meta_epoch": "2025-12-09T12:00:02.000160",
        "meta_mean_motion": 15.4589568,
        "meta_eccentricity": 8.58e-05,
        "meta_inclination": 43.0002,
        "meta_ra_of_asc_node": 90.0621,
        "meta_arg_of_pericenter": 279.9354,
        "meta_mean_anomaly": 329.4948,
        "meta_ephemeris_type": 0,
        "meta_classification_type": "U",
        "meta_norad_cat_id": 66463,
        "meta_element_set_no": 999,
        "meta_rev_at_epoch": 511,
        "meta_bstar": -0.046626,
        "meta_mean_motion_dot": -0.02062708,
        "meta_mean_motion_ddot": 0,
        "tle_line1": "1 66463U 25262H   25343.50002315 -.02062708  00000+0 -46626-1 0  9996",
        "tle_line2": "2 66463  43.0002  90.0621 0000858 279.9354 329.4948 15.45895680  5111"
      },
      "geometry": {
        "type": "Point",
        "coordinates": [
          54.09686849028247,
          -27.987029758251552
        ]
      }
    },
    {
      "type": "Feature",
      "properties": {
        "norad_id": 66464,
        "name": "STARLINK-35435",
        "group": "last-30-days",
        "lat": -32.54323962759589,
        "lon": 45.66850499319646,
        "alt_km": 437.4172634929746,
        "timestamp": "2025-12-09T16:56:35.358191+00:00",
        "meta_object_name": "STARLINK-35435",
        "meta_object_id": "2025-262J",
        "meta_epoch": "2025-12-09T12:00:02.000160",
        "meta_mean_motion": 15.44564354,
        "meta_eccentricity": 0.0001118,
        "meta_inclination": 43.0003,
        "meta_ra_of_asc_node": 90.0809,
        "meta_arg_of_pericenter": 277.6243,
        "meta_mean_anomaly": 324.1877,
        "meta_ephemeris_type": 0,
        "meta_classification_type": "U",
        "meta_norad_cat_id": 66464,
        "meta_element_set_no": 999,
        "meta_rev_at_epoch": 511,
        "meta_bstar": -0.04886,
        "meta_mean_motion_dot": -0.02064214,
        "meta_mean_motion_ddot": 0,
        "tle_line1": "1 66464U 25262J   25343.50002315 -.02064214  00000+0 -48860-1 0  9993",
        "tle_line2": "2 66464  43.0003  90.0809 0001118 277.6243 324.1877 15.44564354  5116"
      },
      "geometry": {
        "type": "Point",
        "coordinates": [
          45.66850499319646,
          -32.54323962759589
        ]
      }
    },
    {
      "type": "Feature",
      "properties": {
        "norad_id": 66465,
        "name": "STARLINK-35448",
        "group": "last-30-days",
        "lat": -19.702039119838517,
        "lon": 66.23036590415752,
        "alt_km": 420.81301282864297,
        "timestamp": "2025-12-09T16:56:35.358202+00:00",
        "meta_object_name": "STARLINK-35448",
        "meta_object_id": "2025-262K",
        "meta_epoch": "2025-12-09T10:52:53.594112",
        "meta_mean_motion": 15.49371995,
        "meta_eccentricity": 0.0001467,
        "meta_inclination": 43.0002,
        "meta_ra_of_asc_node": 90.3041,
        "meta_arg_of_pericenter": 252.1747,
        "meta_mean_anomaly": 107.8953,
        "meta_ephemeris_type": 0,
        "meta_classification_type": "U",
        "meta_norad_cat_id": 66465,
        "meta_element_set_no": 999,
        "meta_rev_at_epoch": 505,
        "meta_bstar": -0.0065675,
        "meta_mean_motion_dot": -0.00353265,
        "meta_mean_motion_ddot": 0,
        "tle_line1": "1 66465U 25262K   25343.45339808 -.00353265  00000+0 -65675-2 0  9997",
        "tle_line2": "2 66465  43.0002  90.3041 0001467 252.1747 107.8953 15.49371995  5057"
      },
      "geometry": {
        "type": "Point",
        "coordinates": [
          66.23036590415752,
          -19.702039119838517
        ]
      }
    },
    {
      "type": "Feature",
      "properties": {
        "norad_id": 66466,
        "name": "STARLINK-35388",
        "group": "last-30-days",
        "lat": -16.96473691047578,
        "lon": 69.708863329138,
        "alt_km": 416.98459436502344,
        "timestamp": "2025-12-09T16:56:35.358212+00:00",
        "meta_object_name": "STARLINK-35388",
        "meta_object_id": "2025-262L",
        "meta_epoch": "2025-12-09T10:52:04.094688",
        "meta_mean_motion": 15.50487922,
        "meta_eccentricity": 0.0001412,
        "meta_inclination": 42.9996,
        "meta_ra_of_asc_node": 90.2991,
        "meta_arg_of_pericenter": 244.8789,
        "meta_mean_anomaly": 115.1925,
        "meta_ephemeris_type": 0,
        "meta_classification_type": "U",
        "meta_norad_cat_id": 66466,
        "meta_element_set_no": 999,
        "meta_rev_at_epoch": 505,
        "meta_bstar": -0.00039677,
        "meta_mean_motion_dot": -0.00023472,
        "meta_mean_motion_ddot": 0,
        "tle_line1": "1 66466U 25262L   25343.45282517 -.00023472  00000+0 -39677-3 0  9990",
        "tle_line2": "2 66466  42.9996  90.2991 0001412 244.8789 115.1925 15.50487922  5056"
      },
      "geometry": {
        "type": "Point",
        "coordinates": [
          69.708863329138,
          -16.96473691047578
        ]
      }
    }
  ]
}